{
  "type": "FeatureCollection",
  "features": [
    {
      "type": "Feature",
      "properties": {
        "norad_id": 34492,
        "name": "IRIDIUM 33 DEB",
        "group": "iridium-33-debris",
        "lat": 10.307758405633196,
        "lon": -29.44582663890752,
        "alt_km": 940.5276738198554,
        "timestamp": "2025-12-24T09:46:31.389232+00:00",
        "meta_object_name": "IRIDIUM 33 DEB",
        "meta_object_id": "1997-051GH",
        "meta_epoch": "2025-12-23T09:11:16.550016",
        "meta_mean_motion": 14.25905293,
        "meta_eccentricity": 0.0188765,
        "meta_inclination": 86.4718,
        "meta_ra_of_asc_node": 330.3252,
        "meta_arg_of_pericenter": 203.591,
        "meta_mean_anomaly": 310.8385,
        "meta_ephemeris_type": 0,
        "meta_classification_type": "U",
        "meta_norad_cat_id": 34492,
        "meta_element_set_no": 999,
        "meta_rev_at_epoch": 85210,
        "meta_bstar": 0.0030137,
        "meta_mean_motion_dot": 8.678e-05,
        "meta_mean_motion_ddot": 0,
        "tle_line1": "1 34492U 97051GH  25357.38283044  .00008678  00000+0  30137-2 0  9992",
        "tle_line2": "2 34492  86.4718 330.3252 0188765 203.5910 310.8385 14.25905293852105"
      },
      "geometry": {
        "type": "Point",
        "coordinates": [
          -29.44582663890752,
          10.307758405633196
        ]
      }
    },
    {
      "type": "Feature",
      "properties": {
        "norad_id": 34497,
        "name": "IRIDIUM 33 DEB",
        "group": "iridium-33-debris",
        "lat": -42.552371579661205,
        "lon": 43.99001237483894,
        "alt_km": 752.9541608524714,
        "timestamp": "2025-12-24T09:46:31.389242+00:00",
        "meta_object_name": "IRIDIUM 33 DEB",
        "meta_object_id": "1997-051GN",
        "meta_epoch": "2025-12-22T21:33:03.136608",
        "meta_mean_motion": 14.27482363,
        "meta_eccentricity": 0.00780484,
        "meta_inclination": 86.2769,
        "meta_ra_of_asc_node": 48.0617,
        "meta_arg_of_pericenter": 306.2683,
        "meta_mean_anomaly": 179.2919,
        "meta_ephemeris_type": 0,
        "meta_classification_type": "U",
        "meta_norad_cat_id": 34497,
        "meta_element_set_no": 999,
        "meta_rev_at_epoch": 87028,
        "meta_bstar": 0.00056228088,
        "meta_mean_motion_dot": 1.443e-05,
        "meta_mean_motion_ddot": 0,
        "tle_line1": "1 34497U 97051GN  25356.89795297  .00001443  00000+0  56228-3 0  9993",
        "tle_line2": "2 34497  86.2769  48.0617 0078048 306.2683 179.2919 14.27482363870281"
      },
      "geometry": {
        "type": "Point",
        "coordinates": [
          43.99001237483894,
          -42.552371579661205
        ]
      }
    },
    {
      "type": "Feature",
      "properties": {
        "norad_id": 34508,
        "name": "IRIDIUM 33 DEB",
        "group": "iridium-33-debris",
        "lat": -37.33370590718126,
        "lon": -79.52806326009404,
        "alt_km": 762.8448507566245,
        "timestamp": "2025-12-24T09:46:31.389252+00:00",
        "meta_object_name": "IRIDIUM 33 DEB",
        "meta_object_id": "1997-051GZ",
        "meta_epoch": "2025-12-23T06:03:45.637920",
        "meta_mean_motion": 14.38502292,
        "meta_eccentricity": 0.00666476,
        "meta_inclination": 86.3705,
        "meta_ra_of_asc_node": 98.1866,
        "meta_arg_of_pericenter": 139.2389,
        "meta_mean_anomaly": 221.3824,
        "meta_ephemeris_type": 0,
        "meta_classification_type": "U",
        "meta_norad_cat_id": 34508,
        "meta_element_set_no": 999,
        "meta_rev_at_epoch": 87460,
        "meta_bstar": 0.0011996031,
        "meta_mean_motion_dot": 3.78e-05,
        "meta_mean_motion_ddot": 0,
        "tle_line1": "1 34508U 97051GZ  25357.25261155  .00003780  00000+0  11996-2 0  9996",
        "tle_line2": "2 34508  86.3705  98.1866 0066647 139.2389 221.3824 14.38502292874606"
      },
      "geometry": {
        "type": "Point",
        "coordinates": [
          -79.52806326009404,
          -37.33370590718126
        ]
      }
    },
    {
      "type": "Feature",
      "properties": {
        "norad_id": 34521,
        "name": "IRIDIUM 33 DEB",
        "group": "iridium-33-debris",
        "lat": 0.3315411233707294,
        "lon": 25.431143952243215,
        "alt_km": 687.1677628104062,
        "timestamp": "2025-12-24T09:46:31.389262+00:00",
        "meta_object_name": "IRIDIUM 33 DEB",
        "meta_object_id": "1997-051HN",
        "meta_epoch": "2025-12-24T03:12:35.282880",
        "meta_mean_motion": 14.63456562,
        "meta_eccentricity": 0.0003031,
        "meta_inclination": 86.3785,
        "meta_ra_of_asc_node": 25.5306,
        "meta_arg_of_pericenter": 169.1512,
        "meta_mean_anomaly": 190.9765,
        "meta_ephemeris_type": 0,
        "meta_classification_type": "U",
        "meta_norad_cat_id": 34521,
        "meta_element_set_no": 999,
        "meta_rev_at_epoch": 88639,
        "meta_bstar": 0.00087021,
        "meta_mean_motion_dot": 4.525e-05,
        "meta_mean_motion_ddot": 0,
        "tle_line1": "1 34521U 97051HN  25358.13374170  .00004525  00000+0  87021-3 0  9992",
        "tle_line2": "2 34521  86.3785  25.5306 0003031 169.1512 190.9765 14.63456562886390"
      },
      "geometry": {
        "type": "Point",
        "coordinates": [
          25.431143952243215,
          0.3315411233707294
        ]
      }
    },
    {
      "type": "Feature",
      "properties": {
        "norad_id": 34525,
        "name": "IRIDIUM 33 DEB",
        "group": "iridium-33-debris",
        "lat": 39.720923742344254,
        "lon": 44.88514473298001,
        "alt_km": 741.8918077174685,
        "timestamp": "2025-12-24T09:46:31.389272+00:00",
        "meta_object_name": "IRIDIUM 33 DEB",
        "meta_object_id": "1997-051HS",
        "meta_epoch": "2025-12-24T03:10:54.670080",
        "meta_mean_motion": 14.4293133,
        "meta_eccentricity": 0.0006291,
        "meta_inclination": 86.3717,
        "meta_ra_of_asc_node": 41.9805,
        "meta_arg_of_pericenter": 68.8612,
        "meta_mean_anomaly": 344.8819,
        "meta_ephemeris_type": 0,
        "meta_classification_type": "U",
        "meta_norad_cat_id": 34525,
        "meta_element_set_no": 999,
        "meta_rev_at_epoch": 88252,
        "meta_bstar": 0.00032438,
        "meta_mean_motion_dot": 1.104e-05,
        "meta_mean_motion_ddot": 0,
        "tle_line1": "1 34525U 97051HS  25358.13257720  .00001104  00000+0  32438-3 0  9999",
        "tle_line2": "2 34525  86.3717  41.9805 0006291  68.8612 344.8819 14.42931330882521"
      },
      "geometry": {
        "type": "Point",
        "coordinates": [
          44.88514473298001,
          39.720923742344254
        ]
      }
    },
    {
      "type": "Feature",
      "properties": {
        "norad_id": 34529,
        "name": "IRIDIUM 33 DEB",
        "group": "iridium-33-debris",
        "lat": -18.454204822121785,
        "lon": -148.34639510641222,
        "alt_km": 759.095887305446,
        "timestamp": "2025-12-24T09:46:31.389282+00:00",
        "meta_object_name": "IRIDIUM 33 DEB",
        "meta_object_id": "1997-051HW",
        "meta_epoch": "2025-12-23T12:51:13.501152",
        "meta_mean_motion": 14.4062425,
        "meta_eccentricity": 0.0006028,
        "meta_inclination": 86.363,
        "meta_ra_of_asc_node": 30.809,
        "meta_arg_of_pericenter": 146.0687,
        "meta_mean_anomaly": 214.0899,
        "meta_ephemeris_type": 0,
        "meta_classification_type": "U",
        "meta_norad_cat_id": 34529,
        "meta_element_set_no": 999,
        "meta_rev_at_epoch": 88297,
        "meta_bstar": 0.00011429374,
        "meta_mean_motion_dot": 3.84e-06,
        "meta_mean_motion_ddot": 0,
        "tle_line1": "1 34529U 97051HW  25357.53557293  .00000384  00000+0  11429-3 0  9990",
        "tle_line2": "2 34529  86.3630  30.8090 0006028 146.0687 214.0899 14.40624250882974"
      },
      "geometry": {
        "type": "Point",
        "coordinates": [
          -148.34639510641222,
          -18.454204822121785
        ]
      }
    },
    {
      "type": "Feature",
      "properties": {
        "norad_id": 34538,
        "name": "IRIDIUM 33 DEB",
        "group": "iridium-33-debris",
        "lat": 57.965786131091065,
        "lon": 174.4705022984462,
        "alt_km": 766.1300429602788,
        "timestamp": "2025-12-24T09:46:31.389310+00:00",
        "meta_object_name": "IRIDIUM 33 DEB",
        "meta_object_id": "1997-051JF",
        "meta_epoch": "2025-12-24T01:10:25.170816",
        "meta_mean_motion": 14.42711069,
        "meta_eccentricity": 0.0031948,
        "meta_inclination": 86.2766,
        "meta_ra_of_asc_node": 0.6013,
        "meta_arg_of_pericenter": 288.8052,
        "meta_mean_anomaly": 132.7783,
        "meta_ephemeris_type": 0,
        "meta_classification_type": "U",
        "meta_norad_cat_id": 34538,
        "meta_element_set_no": 999,
        "meta_rev_at_epoch": 87919,
        "meta_bstar": 0.00093145,
        "meta_mean_motion_dot": 3.137e-05,
        "meta_mean_motion_ddot": 0,
        "tle_line1": "1 34538U 97051JF  25358.04890244  .00003137  00000+0  93145-3 0  9997",
        "tle_line2": "2 34538  86.2766   0.6013 0031948 288.8052 132.7783 14.42711069879198"
      },
      "geometry": {
        "type": "Point",
        "coordinates": [
          174.4705022984462,
          57.965786131091065
        ]
      }
    }
  ]
}